[{"OBJECT_NAME":"STARLINK-30804","OBJECT_ID":"2023-166F","EPOCH":"2026-03-09T17:43:38.831232","MEAN_MOTION":15.30175871,"ECCENTRICITY":0.00011553,"INCLINATION":53.1611,"RA_OF_ASC_NODE":219.6057,"ARG_OF_PERICENTER":81.157,"MEAN_ANOMALY":278.9562,"EPHEMERIS_TYPE":0,"CLASSIFICATION_TYPE":"U","NORAD_CAT_ID":58155,"ELEMENT_SET_NO":999,"REV_AT_EPOCH":13318,"BSTAR":-7.0545667e-5,"MEAN_MOTION_DOT":-2.446e-5,"MEAN_MOTION_DDOT":0},{"OBJECT_NAME":"LYNK TOWER 5","OBJECT_ID":"2024-043Z","EPOCH":"2026-03-09T22:11:51.175104","MEAN_MOTION":15.29454506,"ECCENTRICITY":0.00104056,"INCLINATION":97.5458,"RA_OF_ASC_NODE":204.7305,"ARG_OF_PERICENTER":234.6422,"MEAN_ANOMALY":125.3846,"EPHEMERIS_TYPE":0,"CLASSIFICATION_TYPE":"U","NORAD_CAT_ID":59121,"ELEMENT_SET_NO":999,"REV_AT_EPOCH":11186,"BSTAR":0.00031901545,"MEAN_MOTION_DOT":9.048e-5,"MEAN_MOTION_DDOT":0}]
